{
  "type": "FeatureCollection",
  "features": [
    {
      "type": "Feature",
      "properties": {
        "norad_id": 28890,
        "name": "BEIJING 1",
        "group": "dmc",
        "lat": -56.53251731577035,
        "lon": 140.40360332834925,
        "alt_km": 699.7974379885518,
        "timestamp": "2025-12-26T03:50:11.754355+00:00",
        "meta_object_name": "BEIJING 1",
        "meta_object_id": "2005-043A",
        "meta_epoch": "2025-12-25T21:32:06.650016",
        "meta_mean_motion": 14.63378632,
        "meta_eccentricity": 0.0015836,
        "meta_inclination": 98.2664,
        "meta_ra_of_asc_node": 127.4362,
        "meta_arg_of_pericenter": 102.5862,
        "meta_mean_anomaly": 257.7112,
        "meta_ephemeris_type": 0,
        "meta_classification_type": "U",
        "meta_norad_cat_id": 28890,
        "meta_element_set_no": 999,
        "meta_rev_at_epoch": 7530,
        "meta_bstar": 0.0001324,
        "meta_mean_motion_dot": 6.37e-06,
        "meta_mean_motion_ddot": 0,
        "tle_line1": "1 28890U 05043A   25359.89729919  .00000637  00000+0  13240-3 0  9995",
        "tle_line2": "2 28890  98.2664 127.4362 0015836 102.5862 257.7112 14.63378632 75309"
      },
      "geometry": {
        "type": "Point",
        "coordinates": [
          140.40360332834925,
          -56.53251731577035
        ]
      }
    },
    {
      "type": "Feature",
      "properties": {
        "norad_id": 33320,
        "name": "HUANJING 1A (HJ-1A)",
        "group": "dmc",
        "lat": -35.87976431271402,
        "lon": 162.31505621119283,
        "alt_km": 634.3397563920817,
        "timestamp": "2025-12-26T03:50:11.754385+00:00",
        "meta_object_name": "HUANJING 1A (HJ-1A)",
        "meta_object_id": "2008-041A",
        "meta_epoch": "2025-12-25T22:00:27.835776",
        "meta_mean_motion": 14.83433246,
        "meta_eccentricity": 0.0019133,
        "meta_inclination": 97.6551,
        "meta_ra_of_asc_node": 347.6653,
        "meta_arg_of_pericenter": 352.1825,
        "meta_mean_anomaly": 7.9088,
        "meta_ephemeris_type": 0,
        "meta_classification_type": "U",
        "meta_norad_cat_id": 33320,
        "meta_element_set_no": 999,
        "meta_rev_at_epoch": 93271,
        "meta_bstar": 0.00018043,
        "meta_mean_motion_dot": 1.435e-05,
        "meta_mean_motion_ddot": 0,
        "tle_line1": "1 33320U 08041A   25359.91698884  .00001435  00000+0  18043-3 0  9992",
        "tle_line2": "2 33320  97.6551 347.6653 0019133 352.1825   7.9088 14.83433246932715"
      },
      "geometry": {
        "type": "Point",
        "coordinates": [
          162.31505621119283,
          -35.87976431271402
        ]
      }
    },
    {
      "type": "Feature",
      "properties": {
        "norad_id": 33321,
        "name": "HUANJING 1B (HJ-1B)",
        "group": "dmc",
        "lat": 49.042027369922806,
        "lon": -17.337312934949292,
        "alt_km": 590.6237981530376,
        "timestamp": "2025-12-26T03:50:11.754400+00:00",
        "meta_object_name": "HUANJING 1B (HJ-1B)",
        "meta_object_id": "2008-041B",
        "meta_epoch": "2025-12-25T21:08:13.858080",
        "meta_mean_motion": 14.82856603,
        "meta_eccentricity": 0.0037663,
        "meta_inclination": 97.6409,
        "meta_ra_of_asc_node": 351.293,
        "meta_arg_of_pericenter": 34.1292,
        "meta_mean_anomaly": 326.2333,
        "meta_ephemeris_type": 0,
        "meta_classification_type": "U",
        "meta_norad_cat_id": 33321,
        "meta_element_set_no": 999,
        "meta_rev_at_epoch": 93272,
        "meta_bstar": 0.0002244,
        "meta_mean_motion_dot": 1.788e-05,
        "meta_mean_motion_ddot": 0,
        "tle_line1": "1 33321U 08041B   25359.88071595  .00001788  00000+0  22440-3 0  9990",
        "tle_line2": "2 33321  97.6409 351.2930 0037663  34.1292 326.2333 14.82856603932726"
      },
      "geometry": {
        "type": "Point",
        "coordinates": [
          -17.337312934949292,
          49.042027369922806
        ]
      }
    },
    {
      "type": "Feature",
      "properties": {
        "norad_id": 33446,
        "name": "YAOGAN-4",
        "group": "dmc",
        "lat": -44.521077487618804,
        "lon": -62.00300459071471,
        "alt_km": 620.4425042014664,
        "timestamp": "2025-12-26T03:50:11.754412+00:00",
        "meta_object_name": "YAOGAN-4",
        "meta_object_id": "2008-061A",
        "meta_epoch": "2025-12-25T18:19:17.173344",
        "meta_mean_motion": 14.8271976,
        "meta_eccentricity": 0.0012966,
        "meta_inclination": 97.9198,
        "meta_ra_of_asc_node": 289.7359,
        "meta_arg_of_pericenter": 277.0684,
        "meta_mean_anomaly": 82.9055,
        "meta_ephemeris_type": 0,
        "meta_classification_type": "U",
        "meta_norad_cat_id": 33446,
        "meta_element_set_no": 999,
        "meta_rev_at_epoch": 91996,
        "meta_bstar": 0.00018511,
        "meta_mean_motion_dot": 1.442e-05,
        "meta_mean_motion_ddot": 0,
        "tle_line1": "1 33446U 08061A   25359.76339321  .00001442  00000+0  18511-3 0  9992",
        "tle_line2": "2 33446  97.9198 289.7359 0012966 277.0684  82.9055 14.82719760919964"
      },
      "geometry": {
        "type": "Point",
        "coordinates": [
          -62.00300459071471,
          -44.521077487618804
        ]
      }
    },
    {
      "type": "Feature",
      "properties": {
        "norad_id": 35681,
        "name": "DEIMOS-1",
        "group": "dmc",
        "lat": 69.6602968236339,
        "lon": 138.6863199852174,
        "alt_km": 636.8155855849764,
        "timestamp": "2025-12-26T03:50:11.754423+00:00",
        "meta_object_name": "DEIMOS-1",
        "meta_object_id": "2009-041A",
        "meta_epoch": "2025-12-25T21:00:10.381824",
        "meta_mean_motion": 14.74971139,
        "meta_eccentricity": 0.0002449,
        "meta_inclination": 97.7158,
        "meta_ra_of_asc_node": 159.8676,
        "meta_arg_of_pericenter": 59.4812,
        "meta_mean_anomaly": 300.6639,
        "meta_ephemeris_type": 0,
        "meta_classification_type": "U",
        "meta_norad_cat_id": 35681,
        "meta_element_set_no": 999,
        "meta_rev_at_epoch": 88133,
        "meta_bstar": 9.1256e-05,
        "meta_mean_motion_dot": 5.66e-06,
        "meta_mean_motion_ddot": 0,
        "tle_line1": "1 35681U 09041A   25359.87512016  .00000566  00000+0  91256-4 0  9994",
        "tle_line2": "2 35681  97.7158 159.8676 0002449  59.4812 300.6639 14.74971139881338"
      },
      "geometry": {
        "type": "Point",
        "coordinates": [
          138.6863199852174,
          69.6602968236339
        ]
      }
    },
    {
      "type": "Feature",
      "properties": {
        "norad_id": 35683,
        "name": "UK-DMC 2",
        "group": "dmc",
        "lat": 60.11766372649281,
        "lon": -31.40950765972782,
        "alt_km": 636.2845771911898,
        "timestamp": "2025-12-26T03:50:11.754434+00:00",
        "meta_object_name": "UK-DMC 2",
        "meta_object_id": "2009-041C",
        "meta_epoch": "2025-12-25T20:47:25.264032",
        "meta_mean_motion": 14.75648794,
        "meta_eccentricity": 0.0001586,
        "meta_inclination": 97.8573,
        "meta_ra_of_asc_node": 134.3995,
        "meta_arg_of_pericenter": 91.6419,
        "meta_mean_anomaly": 268.4972,
        "meta_ephemeris_type": 0,
        "meta_classification_type": "U",
        "meta_norad_cat_id": 35683,
        "meta_element_set_no": 999,
        "meta_rev_at_epoch": 88100,
        "meta_bstar": 0.00016697,
        "meta_mean_motion_dot": 1.091e-05,
        "meta_mean_motion_ddot": 0,
        "tle_line1": "1 35683U 09041C   25359.86626463  .00001091  00000+0  16697-3 0  9996",
        "tle_line2": "2 35683  97.8573 134.3995 0001586  91.6419 268.4972 14.75648794881000"
      },
      "geometry": {
        "type": "Point",
        "coordinates": [
          -31.40950765972782,
          60.11766372649281
        ]
      }
    },
    {
      "type": "Feature",
      "properties": {
        "norad_id": 40715,
        "name": "DMC3-FM1",
        "group": "dmc",
        "lat": -76.49082721149762,
        "lon": -99.02736870172996,
        "alt_km": 616.7312162913277,
        "timestamp": "2025-12-26T03:50:11.754446+00:00",
        "meta_object_name": "DMC3-FM1",
        "meta_object_id": "2015-032A",
        "meta_epoch": "2025-12-25T21:43:27.622848",
        "meta_mean_motion": 14.85461304,
        "meta_eccentricity": 0.0004083,
        "meta_inclination": 97.6679,
        "meta_ra_of_asc_node": 226.6177,
        "meta_arg_of_pericenter": 266.1388,
        "meta_mean_anomaly": 93.9361,
        "meta_ephemeris_type": 0,
        "meta_classification_type": "U",
        "meta_norad_cat_id": 40715,
        "meta_element_set_no": 999,
        "meta_rev_at_epoch": 56418,
        "meta_bstar": 8.6785e-05,
        "meta_mean_motion_dot": 6.97e-06,
        "meta_mean_motion_ddot": 0,
        "tle_line1": "1 40715U 15032A   25359.90518082  .00000697  00000+0  86785-4 0  9994",
        "tle_line2": "2 40715  97.6679 226.6177 0004083 266.1388  93.9361 14.85461304564184"
      },
      "geometry": {
        "type": "Point",
        "coordinates": [
          -99.02736870172996,
          -76.49082721149762
        ]
      }
    },
    {
      "type": "Feature",
      "properties": {
        "norad_id": 40716,
        "name": "DMC3-FM2",
        "group": "dmc",
        "lat": 18.739369409481434,
        "lon": 50.93793546696774,
        "alt_km": 613.5713937948613,
        "timestamp": "2025-12-26T03:50:11.754456+00:00",
        "meta_object_name": "DMC3-FM2",
        "meta_object_id": "2015-032B",
        "meta_epoch": "2025-12-25T20:38:49.924320",
        "meta_mean_motion": 14.85464523,
        "meta_eccentricity": 0.000458,
        "meta_inclination": 97.6736,
        "meta_ra_of_asc_node": 228.0276,
        "meta_arg_of_pericenter": 272.8014,
        "meta_mean_anomaly": 87.2677,
        "meta_ephemeris_type": 0,
        "meta_classification_type": "U",
        "meta_norad_cat_id": 40716,
        "meta_element_set_no": 999,
        "meta_rev_at_epoch": 56417,
        "meta_bstar": 0.00015505,
        "meta_mean_motion_dot": 1.286e-05,
        "meta_mean_motion_ddot": 0,
        "tle_line1": "1 40716U 15032B   25359.86030005  .00001286  00000+0  15505-3 0  9990",
        "tle_line2": "2 40716  97.6736 228.0276 0004580 272.8014  87.2677 14.85464523564178"
      },
      "geometry": {
        "type": "Point",
        "coordinates": [
          50.93793546696774,
          18.739369409481434
        ]
      }
    },
    {
      "type": "Feature",
      "properties": {
        "norad_id": 40717,
        "name": "DMC3-FM3",
        "group": "dmc",
        "lat": 44.27701120973041,
        "lon": -137.60154750533047,
        "alt_km": 610.2359332311016,
        "timestamp": "2025-12-26T03:50:11.754466+00:00",
        "meta_object_name": "DMC3-FM3",
        "meta_object_id": "2015-032C",
        "meta_epoch": "2025-12-25T19:33:08.254368",
        "meta_mean_motion": 14.85451614,
        "meta_eccentricity": 0.0003858,
        "meta_inclination": 97.6792,
        "meta_ra_of_asc_node": 229.6255,
        "meta_arg_of_pericenter": 274.3923,
        "meta_mean_anomaly": 85.6851,
        "meta_ephemeris_type": 0,
        "meta_classification_type": "U",
        "meta_norad_cat_id": 40717,
        "meta_element_set_no": 999,
        "meta_rev_at_epoch": 56417,
        "meta_bstar": 0.00017738,
        "meta_mean_motion_dot": 1.478e-05,
        "meta_mean_motion_ddot": 0,
        "tle_line1": "1 40717U 15032C   25359.81467887  .00001478  00000+0  17738-3 0  9991",
        "tle_line2": "2 40717  97.6792 229.6255 0003858 274.3923  85.6851 14.85451614564171"
      },
      "geometry": {
        "type": "Point",
        "coordinates": [
          -137.60154750533047,
          44.27701120973041
        ]
      }
    }
  ]
}